STARLINK-4555           
1 53572U 22101AX  26012.54353004 -.00001412  00000+0 -70699-4 0  9997
2 53572  53.2195 305.8475 0001342  82.2044 277.9100 15.08827796187972
STARLINK-4559           
1 53574U 22101AZ  26012.94465303  .00000446  00000+0  46132-4 0  9998
2 53574  53.2199 304.0827 0001568  97.2721 262.8449 15.08839939188037
STARLINK-4551           
1 53575U 22101BA  26012.95202559  .00000097  00000+0  24211-4 0  9998
2 53575  53.2176 304.1289 0001408  91.2739 268.8415 15.08832350188727
STARLINK-4581           
1 53576U 22101BB  26012.95297823 -.00000453  00000+0 -10345-4 0  9998
2 53576  53.2184 304.1306 0001664 100.8413 259.2767 15.08839217188854
STARLINK-4553           
1 53577U 22101BC  26012.94833931 -.00000665  00000+0 -23696-4 0  9992
2 53577  53.2171 304.1051 0001466  90.7402 269.3758 15.08834508188853
STARLINK-4556           
1 53578U 22101BD  26012.53984090  .00000924  00000+0  76115-4 0  9991
2 53578  53.2181 305.8214 0001297  84.8198 275.2942 15.08839535187970
STARLINK-4580           
1 53579U 22101BE  26012.53615386  .00004731  00000+0  31513-3 0  9993
2 53579  53.2180 305.7986 0001319  79.0955 281.0186 15.08839321187975
STARLINK-4691           
1 53588U 22104A   26012.73219958  .00000255  00000+0  34120-4 0  9998
2 53588  53.2175 135.5742 0001349  85.5796 274.5350 15.08835268187646
STARLINK-4673           
1 53589U 22104B   26012.71377595  .00000362  00000+0  40859-4 0  9994
2 53589  53.2189 135.4573 0001311  91.7729 268.3414 15.08837217187498
STARLINK-4689           
1 53590U 22104C   26012.72851442 -.00000152  00000+0  85232-5 0  9998
2 53590  53.2173 135.5491 0001142  90.3479 269.7644 15.08837632187516
STARLINK-4674           
1 53591U 22104D   26012.72483355  .00002281  00000+0  16136-3 0  9992
2 53591  53.2175 135.5239 0001169  85.7136 274.3990 15.08842372187519
STARLINK-4672           
1 53592U 22104E   26012.72210019 -.00000349  00000+0 -38379-5 0  9998
2 53592  53.2179 135.5074 0001304  84.5906 275.5235 15.08840023187497
STARLINK-4681           
1 53594U 22104G   26012.77264625 -.00000115  00000+0  10874-4 0  9996
2 53594  53.2170 135.1176 0001128  93.8510 266.2611 15.08834394187643
STARLINK-4684           
1 53595U 22104H   26012.77633391 -.00000820  00000+0 -33431-4 0  9995
2 53595  53.2173 135.1383 0001244  91.3373 268.7761 15.08832999187503
STARLINK-4676           
1 53598U 22104L   26012.75053634 -.00000853  00000+0 -35534-4 0  9994
2 53598  53.2182 134.9804 0001202  85.9987 274.1143 15.08835471187171
STARLINK-4677           
1 53600U 22104N   26012.54917230 -.00000385  00000+0 -61013-5 0  9998
2 53600  53.2168 136.5489 0001519  86.3878 273.7288 15.08835588187131
