[{"OBJECT_NAME":"STARLINK-4555","OBJECT_ID":"2022-101AX","EPOCH":"2026-01-12T13:02:40.995456","MEAN_MOTION":15.08827796,"ECCENTRICITY":0.0001342,"INCLINATION":53.2195,"RA_OF_ASC_NODE":305.8475,"ARG_OF_PERICENTER":82.2044,"MEAN_ANOMALY":277.91,"EPHEMERIS_TYPE":0,"CLASSIFICATION_TYPE":"U","NORAD_CAT_ID":53572,"ELEMENT_SET_NO":999,"REV_AT_EPOCH":18797,"BSTAR":-7.0698878e-5,"MEAN_MOTION_DOT":-1.412e-5,"MEAN_MOTION_DDOT":0},{"OBJECT_NAME":"STARLINK-4559","OBJECT_ID":"2022-101AZ","EPOCH":"2026-01-12T22:40:18.021792","MEAN_MOTION":15.08839939,"ECCENTRICITY":0.00015686,"INCLINATION":53.2199,"RA_OF_ASC_NODE":304.0827,"ARG_OF_PERICENTER":97.2721,"MEAN_ANOMALY":262.8449,"EPHEMERIS_TYPE":0,"CLASSIFICATION_TYPE":"U","NORAD_CAT_ID":53574,"ELEMENT_SET_NO":999,"REV_AT_EPOCH":18803,"BSTAR":4.6132104e-5,"MEAN_MOTION_DOT":4.46e-6,"MEAN_MOTION_DDOT":0},{"OBJECT_NAME":"STARLINK-4551","OBJECT_ID":"2022-101BA","EPOCH":"2026-01-12T22:50:55.010976","MEAN_MOTION":15.0883235,"ECCENTRICITY":0.00014089,"INCLINATION":53.2176,"RA_OF_ASC_NODE":304.1289,"ARG_OF_PERICENTER":91.2739,"MEAN_ANOMALY":268.8415,"EPHEMERIS_TYPE":0,"CLASSIFICATION_TYPE":"U","NORAD_CAT_ID":53575,"ELEMENT_SET_NO":999,"REV_AT_EPOCH":18872,"BSTAR":2.421076e-5,"MEAN_MOTION_DOT":9.7e-7,"MEAN_MOTION_DDOT":0},{"OBJECT_NAME":"STARLINK-4581","OBJECT_ID":"2022-101BB","EPOCH":"2026-01-12T22:52:17.319072","MEAN_MOTION":15.08839217,"ECCENTRICITY":0.00016647,"INCLINATION":53.2184,"RA_OF_ASC_NODE":304.1306,"ARG_OF_PERICENTER":100.8413,"MEAN_ANOMALY":259.2767,"EPHEMERIS_TYPE":0,"CLASSIFICATION_TYPE":"U","NORAD_CAT_ID":53576,"ELEMENT_SET_NO":999,"REV_AT_EPOCH":18885,"BSTAR":-1.0344965e-5,"MEAN_MOTION_DOT":-4.53e-6,"MEAN_MOTION_DDOT":0},{"OBJECT_NAME":"STARLINK-4553","OBJECT_ID":"2022-101BC","EPOCH":"2026-01-12T22:45:36.516384","MEAN_MOTION":15.08834508,"ECCENTRICITY":0.00014662,"INCLINATION":53.2171,"RA_OF_ASC_NODE":304.1051,"ARG_OF_PERICENTER":90.7402,"MEAN_ANOMALY":269.3758,"EPHEMERIS_TYPE":0,"CLASSIFICATION_TYPE":"U","NORAD_CAT_ID":53577,"ELEMENT_SET_NO":999,"REV_AT_EPOCH":18885,"BSTAR":-2.3695969e-5,"MEAN_MOTION_DOT":-6.65e-6,"MEAN_MOTION_DDOT":0},{"OBJECT_NAME":"STARLINK-4556","OBJECT_ID":"2022-101BD","EPOCH":"2026-01-12T12:57:22.253760","MEAN_MOTION":15.08839535,"ECCENTRICITY":0.00012973,"INCLINATION":53.2181,"RA_OF_ASC_NODE":305.8214,"ARG_OF_PERICENTER":84.8198,"MEAN_ANOMALY":275.2942,"EPHEMERIS_TYPE":0,"CLASSIFICATION_TYPE":"U","NORAD_CAT_ID":53578,"ELEMENT_SET_NO":999,"REV_AT_EPOCH":18797,"BSTAR":7.6115166e-5,"MEAN_MOTION_DOT":9.24e-6,"MEAN_MOTION_DDOT":0},{"OBJECT_NAME":"STARLINK-4580","OBJECT_ID":"2022-101BE","EPOCH":"2026-01-12T12:52:03.693504","MEAN_MOTION":15.08839321,"ECCENTRICITY":0.00013194,"INCLINATION":53.218,"RA_OF_ASC_NODE":305.7986,"ARG_OF_PERICENTER":79.0955,"MEAN_ANOMALY":281.0186,"EPHEMERIS_TYPE":0,"CLASSIFICATION_TYPE":"U","NORAD_CAT_ID":53579,"ELEMENT_SET_NO":999,"REV_AT_EPOCH":18797,"BSTAR":0.00031512567,"MEAN_MOTION_DOT":4.731e-5,"MEAN_MOTION_DDOT":0},{"OBJECT_NAME":"STARLINK-4691","OBJECT_ID":"2022-104A","EPOCH":"2026-01-12T17:34:22.043712","MEAN_MOTION":15.08835268,"ECCENTRICITY":0.00013493,"INCLINATION":53.2175,"RA_OF_ASC_NODE":135.5742,"ARG_OF_PERICENTER":85.5796,"MEAN_ANOMALY":274.535,"EPHEMERIS_TYPE":0,"CLASSIFICATION_TYPE":"U","NORAD_CAT_ID":53588,"ELEMENT_SET_NO":999,"REV_AT_EPOCH":18764,"BSTAR":3.4120393e-5,"MEAN_MOTION_DOT":2.55e-6,"MEAN_MOTION_DDOT":0},{"OBJECT_NAME":"STARLINK-4673","OBJECT_ID":"2022-104B","EPOCH":"2026-01-12T17:07:50.242080","MEAN_MOTION":15.08837217,"ECCENTRICITY":0.00013117,"INCLINATION":53.2189,"RA_OF_ASC_NODE":135.4573,"ARG_OF_PERICENTER":91.7729,"MEAN_ANOMALY":268.3414,"EPHEMERIS_TYPE":0,"CLASSIFICATION_TYPE":"U","NORAD_CAT_ID":53589,"ELEMENT_SET_NO":999,"REV_AT_EPOCH":18749,"BSTAR":4.085885e-5,"MEAN_MOTION_DOT":3.62e-6,"MEAN_MOTION_DDOT":0},{"OBJECT_NAME":"STARLINK-4689","OBJECT_ID":"2022-104C","EPOCH":"2026-01-12T17:29:03.645888","MEAN_MOTION":15.08837632,"ECCENTRICITY":0.0001142,"INCLINATION":53.2173,"RA_OF_ASC_NODE":135.5491,"ARG_OF_PERICENTER":90.3479,"MEAN_ANOMALY":269.7644,"EPHEMERIS_TYPE":0,"CLASSIFICATION_TYPE":"U","NORAD_CAT_ID":53590,"ELEMENT_SET_NO":999,"REV_AT_EPOCH":18751,"BSTAR":8.523175e-6,"MEAN_MOTION_DOT":-1.52e-6,"MEAN_MOTION_DDOT":0},{"OBJECT_NAME":"STARLINK-4674","OBJECT_ID":"2022-104D","EPOCH":"2026-01-12T17:23:45.618720","MEAN_MOTION":15.08842372,"ECCENTRICITY":0.0001169,"INCLINATION":53.2175,"RA_OF_ASC_NODE":135.5239,"ARG_OF_PERICENTER":85.7136,"MEAN_ANOMALY":274.399,"EPHEMERIS_TYPE":0,"CLASSIFICATION_TYPE":"U","NORAD_CAT_ID":53591,"ELEMENT_SET_NO":999,"REV_AT_EPOCH":18751,"BSTAR":0.00016135796,"MEAN_MOTION_DOT":2.281e-5,"MEAN_MOTION_DDOT":0},{"OBJECT_NAME":"STARLINK-4672","OBJECT_ID":"2022-104E","EPOCH":"2026-01-12T17:19:49.456416","MEAN_MOTION":15.08840023,"ECCENTRICITY":0.00013044,"INCLINATION":53.2179,"RA_OF_ASC_NODE":135.5074,"ARG_OF_PERICENTER":84.5906,"MEAN_ANOMALY":275.5235,"EPHEMERIS_TYPE":0,"CLASSIFICATION_TYPE":"U","NORAD_CAT_ID":53592,"ELEMENT_SET_NO":999,"REV_AT_EPOCH":18749,"BSTAR":-3.837948e-6,"MEAN_MOTION_DOT":-3.49e-6,"MEAN_MOTION_DDOT":0},{"OBJECT_NAME":"STARLINK-4681","OBJECT_ID":"2022-104G","EPOCH":"2026-01-12T18:32:36.636000","MEAN_MOTION":15.08834394,"ECCENTRICITY":0.00011284,"INCLINATION":53.217,"RA_OF_ASC_NODE":135.1176,"ARG_OF_PERICENTER":93.851,"MEAN_ANOMALY":266.2611,"EPHEMERIS_TYPE":0,"CLASSIFICATION_TYPE":"U","NORAD_CAT_ID":53594,"ELEMENT_SET_NO":999,"REV_AT_EPOCH":18764,"BSTAR":1.0873667e-5,"MEAN_MOTION_DOT":-1.15e-6,"MEAN_MOTION_DDOT":0},{"OBJECT_NAME":"STARLINK-4684","OBJECT_ID":"2022-104H","EPOCH":"2026-01-12T18:37:55.249824","MEAN_MOTION":15.08832999,"ECCENTRICITY":0.00012448,"INCLINATION":53.2173,"RA_OF_ASC_NODE":135.1383,"ARG_OF_PERICENTER":91.3373,"MEAN_ANOMALY":268.7761,"EPHEMERIS_TYPE":0,"CLASSIFICATION_TYPE":"U","NORAD_CAT_ID":53595,"ELEMENT_SET_NO":999,"REV_AT_EPOCH":18750,"BSTAR":-3.3430819e-5,"MEAN_MOTION_DOT":-8.2e-6,"MEAN_MOTION_DDOT":0},{"OBJECT_NAME":"STARLINK-4676","OBJECT_ID":"2022-104L","EPOCH":"2026-01-12T18:00:46.339776","MEAN_MOTION":15.08835471,"ECCENTRICITY":0.00012027,"INCLINATION":53.2182,"RA_OF_ASC_NODE":134.9804,"ARG_OF_PERICENTER":85.9987,"MEAN_ANOMALY":274.1143,"EPHEMERIS_TYPE":0,"CLASSIFICATION_TYPE":"U","NORAD_CAT_ID":53598,"ELEMENT_SET_NO":999,"REV_AT_EPOCH":18717,"BSTAR":-3.5533667e-5,"MEAN_MOTION_DOT":-8.53e-6,"MEAN_MOTION_DDOT":0},{"OBJECT_NAME":"STARLINK-4677","OBJECT_ID":"2022-104N","EPOCH":"2026-01-12T13:10:48.486720","MEAN_MOTION":15.08835588,"ECCENTRICITY":0.00015196,"INCLINATION":53.2168,"RA_OF_ASC_NODE":136.5489,"ARG_OF_PERICENTER":86.3878,"MEAN_ANOMALY":273.7288,"EPHEMERIS_TYPE":0,"CLASSIFICATION_TYPE":"U","NORAD_CAT_ID":53600,"ELEMENT_SET_NO":999,"REV_AT_EPOCH":18713,"BSTAR":-6.101251e-6,"MEAN_MOTION_DOT":-3.85e-6,"MEAN_MOTION_DDOT":0}]
